OBJECT_NAME,OBJECT_ID,EPOCH,MEAN_MOTION,ECCENTRICITY,INCLINATION,RA_OF_ASC_NODE,ARG_OF_PERICENTER,MEAN_ANOMALY,EPHEMERIS_TYPE,CLASSIFICATION_TYPE,NORAD_CAT_ID,ELEMENT_SET_NO,REV_AT_EPOCH,BSTAR,MEAN_MOTION_DOT,MEAN_MOTION_DDOT
EYESAT A (AO-27),1993-061C,2026-05-13T04:15:48.647232,14.30932290,.00080655,98.6891,200.6008,195.5210,164.5726,0,U,22825,999,70199,.33769687E-4,.44E-6,0
ITAMSAT (IO-26),1993-061D,2026-05-13T04:01:10.556256,14.31358230,.00089177,98.6839,200.5046,179.1732,180.9467,0,U,22826,999,70230,.33402415E-4,.44E-6,0
RADIO ROSTO (RS15),1994-085A,2026-05-13T04:08:22.556256,11.27583697,.01549683,64.8193,359.8465,10.2869,350.1167,0,U,23439,999,29195,-.17831223E-3,-.49E-6,0
JAS-2 (FO-29),1996-046B,2026-05-13T01:02:41.557920,13.53272328,.03497192,98.5278,346.7226,187.4780,172.1064,0,U,24278,999,46841,.13786732E-4,-.21E-6,0
FORTE,1997-047A,2026-05-13T01:40:49.782432,14.27929886,.00236615,69.9522,93.3394,320.3136,39.6253,0,U,24920,999,49367,.5886801E-4,.88E-6,0
TECHSAT 1B (GO-32),1998-043D,2026-05-12T22:37:38.182656,14.24421275,.00010062,99.0064,124.8147,13.0735,347.0469,0,U,25397,999,44631,.32084059E-4,.28E-6,0
ISS (ZARYA),1998-067A,2026-05-13T03:59:43.960128,15.49201863,.00075149,51.6312,113.4597,53.2822,306.8856,0,U,25544,999,56632,.97914582E-4,.4986E-4,0
IMAGE,2000-017A,2026-05-11T12:21:24.545088,1.68665748,.74599038,94.2002,314.8870,291.9767,8.1989,0,U,26113,999,16088,-.20584314E-1,.8E-7,0
CLUSTER II-FM7 (SAMBA),2000-041A,2026-05-14T16:04:58.613376,0.44842106,.9016039,149.8131,45.0140,261.7471,0.4872,0,U,26410,999,2015,0,.3081E-4,0
CLUSTER II-FM8 (TANGO),2000-045B,2026-05-14T15:29:09.525696,0.44404709,.901998,150.0702,46.0108,262.6015,0.5030,0,U,26464,999,2014,0,.3165E-4,0
ODIN,2001-007A,2026-05-13T02:40:42.850848,15.66144874,.00021769,97.3930,172.0700,197.0063,163.1124,0,U,26702,999,38389,.66049699E-3,.68097E-3,0
OMNI-M1,2001-026A,2026-05-12T13:21:38.726208,3.92401465,.00154473,44.8439,253.4765,47.3287,312.8214,0,U,26857,999,20417,0,-.19E-6,0
PCSAT (NO-44),2001-043C,2026-05-13T00:38:44.898720,14.31942007,.00062801,67.0512,335.2127,263.7293,96.3094,0,U,26931,999,28541,.55531238E-4,.66E-6,0
PROBA-1,2001-049B,2026-05-13T06:53:22.173216,15.07363423,.00537545,97.9617,140.6036,240.3010,119.2860,0,U,26958,999,33836,.10051486E-3,.1497E-4,0
SAUDISAT 1C (SO-50),2002-058C,2026-05-13T05:23:08.641248,14.82970672,.00756307,64.5522,237.1515,268.8586,90.3855,0,U,27607,999,25927,.88040277E-4,.595E-5,0
CORIOLIS,2003-001A,2026-05-13T05:54:51.137280,14.19934889,.00131484,98.7136,140.6640,317.3739,42.6416,0,U,27640,999,20926,.52741586E-4,.68E-6,0
CUTE-1 (CO-55),2003-031E,2026-05-12T23:35:43.399680,14.24313180,.00083422,98.6747,141.9842,290.4636,69.5647,0,U,27844,999,18666,.10121264E-3,.19E-5,0
CUBESAT XI-IV (CO-57),2003-031J,2026-05-12T22:53:44.176992,14.23601310,.00084651,98.6779,141.6963,311.5693,48.4759,0,U,27848,999,18636,.92088775E-4,.166E-5,0
MOZHAETS 4 (RS22),2003-042A,2026-05-13T07:38:56.253696,14.73403759,.00118686,98.3474,316.6947,25.4711,99.1486,0,U,27939,999,21041,.88010117E-4,.517E-5,0
